0 COSMOS 1875
1 18334U 87074A   13281.42379419 -.00000005  00000-0 -82767-4 0  1105
2 18334 082.5725 001.0405 0013173 242.7088 236.4450 12.66219312205651
0 COSMOS 1875
1 18334U 87074A   13283.64267198  .00000006  00000-0 -22502-4 0  1113
2 18334 082.5724 359.6130 0013250 237.3385 271.2617 12.66219151205937
0 COSMOS 1875
1 18334U 87074A   13285.70155095  .00000032  00000-0  11569-3 0  1123
2 18334 082.5722 358.2885 0013329 232.4094 296.6654 12.66219044206199
0 COSMOS 1875
1 18334U 87074A   13288.20449247  .00000045  00000-0  18320-3 0  1133
2 18334 082.5716 356.6784 0013429 226.4492 186.2952 12.66219049206514
0 COSMOS 1875
1 18334U 87074A   13290.51307395  .00000024  00000-0  69634-4 0  1140
2 18334 082.5710 355.1933 0013517 221.0704 269.8179 12.66219173206802
0 COSMOS 1875
1 18334U 87074A   13294.67213714  .00000023  00000-0  66962-4 0  1153
2 18334 082.5725 352.5207 0013572 211.5543 148.4757 12.66219337207323
